NORAD_CAT_ID,OBJECT_NAME,OBJECT_TYPE,EPOCH,MEAN_MOTION,ECCENTRICITY,INCLINATION,RA_OF_ASC_NODE,ARG_OF_PERICENTER,MEAN_ANOMALY,BSTAR,MEAN_MOTION_DOT,MEAN_MOTION_DDOT,TLE_LINE0,TLE_LINE1,TLE_LINE2,SEMIMAJOR_AXIS,PERIOD,APOGEE,PERIGEE,DECAYED
55939.0,STARLINK-5918,PAYLOAD,2023-12-20 12:12:21,14.98330171,0.0002547,69.9988,167.1793,267.5208,92.5659,8.5191e-05,9.24e-06,0.0,0 STARLINK-5918,1 55939U 23037AB  23354.50858609  .00000924  00000-0  85191-4 0  9997,2 55939  69.9988 167.1793 0002547 267.5208  92.5659 14.98330171 42968,6950.192,96.107,573.828,570.287,0.0
55939.0,STARLINK-5918,PAYLOAD,2023-12-20 13:48:29,14.98330306,0.0002551,69.9988,167.011,267.3883,92.6984,8.4402e-05,9.14e-06,0.0,0 STARLINK-5918,1 55939U 23037AB  23354.57534600  .00000914  00000-0  84402-4 0  9999,2 55939  69.9988 167.0110 0002551 267.3883  92.6984 14.98330306 42638,6950.192,96.107,573.83,570.284,0.0
55939.0,STARLINK-5918,PAYLOAD,2023-12-20 21:49:09,14.98332857,0.0002489,69.9991,166.17,266.9603,93.1271,0.00010909,1.209e-05,0.0,0 STARLINK-5918,1 55939U 23037AB  23354.90914341  .00001209  00000-0  10909-3 0  9998,2 55939  69.9991 166.1700 0002489 266.9603  93.1271 14.98332857 42685,6950.184,96.107,573.779,570.319,0.0
55939.0,STARLINK-5918,PAYLOAD,2023-12-21 12:14:21,14.98343653,0.0002672,69.9988,164.6548,274.775,85.3104,0.00012924,1.45e-05,0.0,0 STARLINK-5918,1 55939U 23037AB  23355.50997310  .00001450  00000-0  12924-3 0  9999,2 55939  69.9988 164.6548 0002672 274.7750  85.3104 14.98343653 43111,6950.151,96.106,573.873,570.159,0.0
55939.0,STARLINK-5918,PAYLOAD,2023-12-21 13:50:29,14.9834481,0.0002653,69.999,164.4859,277.3119,82.7739,0.00014619,1.652e-05,0.0,0 STARLINK-5918,1 55939U 23037AB  23355.57673146  .00001652  00000-0  14619-3 0  9991,2 55939  69.9990 164.4859 0002653 277.3119  82.7739 14.98344810 42787,6950.147,96.106,573.856,570.168,0.0
55939.0,STARLINK-5918,PAYLOAD,2023-12-21 21:51:09,14.98350195,0.0002528,69.9992,163.645,273.5151,86.5719,0.00019357,2.219e-05,0.0,0 STARLINK-5918,1 55939U 23037AB  23355.91052285  .00002219  00000-0  19357-3 0  9998,2 55939  69.9992 163.6450 0002528 273.5151  86.5719 14.98350195 42831,6950.13,96.106,573.752,570.238,0.0
55939.0,STARLINK-5918,PAYLOAD,2023-12-22 12:16:22,14.98337994,0.0001834,70.0015,162.1338,235.3816,124.717,2.475e-06,-6.3e-07,0.0,0 STARLINK-5918,1 55939U 23037AB  23356.51137142 -.00000063  00000-0  24750-5 0  9992,2 55939  70.0015 162.1338 0001834 235.3816 124.7170 14.98337994 43268,6950.168,96.106,573.308,570.759,0.0
55939.0,STARLINK-5918,PAYLOAD,2023-12-22 13:52:30,14.98334384,0.0002652,70.0013,161.9686,230.2263,129.8663,-5.3728e-05,-7.34e-06,0.0,0 STARLINK-5918,1 55939U 23037AB  23356.57813399 -.00000734  00000-0 -53728-4 0  9995,2 55939  70.0013 161.9686 0002652 230.2263 129.8663 14.98334384 42934,6950.179,96.107,573.888,570.201,0.0
55939.0,STARLINK-5918,PAYLOAD,2023-12-22 20:17:05,14.98304609,0.0002745,69.9994,161.289,285.2004,74.8851,-0.00038011,-4.622e-05,0.0,0 STARLINK-5918,1 55939U 23037AB  23356.84520331 -.00004622  00000-0 -38011-3 0  9993,2 55939  69.9994 161.2890 0002745 285.2004  74.8851 14.98304609 43313,6950.271,96.109,574.044,570.229,0.0
55939.0,STARLINK-5918,PAYLOAD,2023-12-23 12:18:25,14.98323558,0.0002118,70.0002,159.6064,246.9186,113.175,-0.00027581,-3.381e-05,0.0,0 STARLINK-5918,1 55939U 23037AB  23357.51279263 -.00003381  00000-0 -27581-3 0  9994,2 55939  70.0002 159.6064 0002118 246.9186 113.1750 14.98323558 43419,6950.213,96.107,573.55,570.606,0.0
55939.0,STARLINK-5918,PAYLOAD,2023-12-23 13:54:33,14.98321726,0.0002298,70.0016,159.4402,253.5341,106.5566,-0.00028029,-3.435e-05,0.0,0 STARLINK-5918,1 55939U 23037AB  23357.57955538 -.00003435  00000-0 -28029-3 0  9994,2 55939  70.0016 159.4402 0002298 253.5341 106.5566 14.98321726 43083,6950.218,96.108,573.681,570.486,0.0
55939.0,STARLINK-5918,PAYLOAD,2023-12-23 20:19:05,14.98325873,0.000271,69.9997,158.7642,270.6549,89.4299,-0.00022422,-2.767e-05,0.0,0 STARLINK-5918,1 55939U 23037AB  23357.84659209 -.00002767  00000-0 -22422-3 0  9998,2 55939  69.9997 158.7642 0002710 270.6549  89.4299 14.98325873 43129,6950.206,96.107,573.954,570.187,0.0
55939.0,STARLINK-5918,PAYLOAD,2023-12-24 12:20:26,14.98316683,0.0002796,69.9993,157.0794,269.5957,90.4881,7.4705e-05,7.98e-06,0.0,0 STARLINK-5918,1 55939U 23037AB  23358.51419334  .00000798  00000-0  74705-4 0  9998,2 55939  69.9993 157.0794 0002796 269.5957  90.4881 14.98316683 43565,6950.234,96.108,574.042,570.156,0.0
55939.0,STARLINK-5918,PAYLOAD,2023-12-24 13:56:34,14.98316928,0.000282,69.9996,156.9119,271.04,89.0436,6.6982e-05,7.06e-06,0.0,0 STARLINK-5918,1 55939U 23037AB  23358.58095418  .00000706  00000-0  66982-4 0  9995,2 55939  69.9996 156.9119 0002820 271.0400  89.0436 14.98316928 43232,6950.233,96.108,574.058,570.138,0.0
55939.0,STARLINK-5918,PAYLOAD,2023-12-24 20:21:06,14.98320029,0.0002757,69.9997,156.2389,268.9094,91.1749,0.00010562,1.167e-05,0.0,0 STARLINK-5918,1 55939U 23037AB  23358.84799354  .00001167  00000-0  10562-3 0  9998,2 55939  69.9997 156.2389 0002757 268.9094  91.1749 14.98320029 43270,6950.224,96.108,574.005,570.173,0.0
55939.0,STARLINK-5918,PAYLOAD,2023-12-25 12:22:29,14.98295053,0.0003126,69.9995,154.5564,275.7824,84.2979,-0.00014763,-1.852e-05,0.0,0 STARLINK-5918,1 55939U 23037AB  23359.51562093 -.00001852  00000-0 -14763-3 0  9991,2 55939  69.9995 154.5564 0003126 275.7824  84.2979 14.98295053 43717,6950.301,96.109,574.339,569.993,0.0
55939.0,STARLINK-5918,PAYLOAD,2023-12-25 13:58:37,14.98294554,0.0003127,69.9995,154.3878,275.6435,84.4367,-0.00015197,-1.904e-05,0.0,0 STARLINK-5918,1 55939U 23037AB  23359.58238262 -.00001904  00000-0 -15197-3 0  9996,2 55939  69.9995 154.3878 0003127 275.6435  84.4367 14.98294554 43382,6950.303,96.109,574.341,569.994,0.0
55939.0,STARLINK-5918,PAYLOAD,2023-12-25 18:47:01,14.98310929,0.0003226,69.9996,153.8835,270.7197,89.3592,-1.3327e-05,-2.52e-06,0.0,0 STARLINK-5918,1 55939U 23037AB  23359.78265239 -.00000252  00000-0 -13327-4 0  9991,2 55939  69.9996 153.8835 0003226 270.7197  89.3592 14.98310929 43751,6950.252,96.108,574.359,569.875,0.0
55939.0,STARLINK-5918,PAYLOAD,2023-12-25 20:23:08,14.98320231,0.0003174,69.9996,153.7151,264.345,95.7347,8.6875e-05,9.43e-06,0.0,0 STARLINK-5918,1 55939U 23037AB  23359.84940449  .00000943  00000-0  86875-4 0  9994,2 55939  69.9996 153.7151 0003174 264.3450  95.7347 14.98320231 43424,6950.223,96.108,574.294,569.882,0.0
55939.0,STARLINK-5918,PAYLOAD,2023-12-26 10:48:20,14.98332233,0.0003208,69.9994,152.1993,268.8217,91.2575,6.9375e-05,7.35e-06,0.0,0 STARLINK-5918,1 55939U 23037AB  23360.45023942  .00000735  00000-0  69375-4 0  9998,2 55939  69.9994 152.1993 0003208 268.8217  91.2575 14.98332233 43853,6950.186,96.107,574.281,569.821,0.0
55939.0,STARLINK-5918,PAYLOAD,2023-12-26 14:00:36,14.98333551,0.0002895,69.9997,151.8619,270.7104,89.3723,9.5896e-05,1.051e-05,0.0,0 STARLINK-5918,1 55939U 23037AB  23360.58375847  .00001051  00000-0  95896-4 0  9995,2 55939  69.9997 151.8619 0002895 270.7104  89.3723 14.98333551 43537,6950.182,96.107,574.059,570.035,0.0
55939.0,STARLINK-5918,PAYLOAD,2023-12-26 20:25:08,14.98337224,0.0002671,70.0002,151.1904,261.6565,98.4291,0.00012872,1.443e-05,0.0,0 STARLINK-5918,1 55939U 23037AB  23360.85079408  .00001443  00000-0  12872-3 0  9996,2 55939  70.0002 151.1904 0002671 261.6565  98.4291 14.98337224 43575,6950.171,96.107,573.892,570.179,0.0
55939.0,STARLINK-5918,PAYLOAD,2023-12-27 10:50:20,14.98327485,0.0003211,70.0,149.6743,273.7842,86.295,0.00039519,4.625e-05,0.0,0 STARLINK-5918,1 55939U 23037AB  23361.45162715  .00004625  00000-0  39519-3 0  9999,2 55939  70.0000 149.6743 0003211 273.7842  86.2950 14.98327485 44003,6950.201,96.107,574.297,569.834,0.0
55939.0,STARLINK-5918,PAYLOAD,2023-12-27 14:02:36,14.98330478,0.0003155,69.9997,149.3384,275.4403,84.6396,0.00039102,4.576e-05,0.0,0 STARLINK-5918,1 55939U 23037AB  23361.58514487  .00004576  00000-0  39102-3 0  9993,2 55939  69.9997 149.3384 0003155 275.4403  84.6396 14.98330478 43687,6950.191,96.107,574.249,569.864,0.0
55939.0,STARLINK-5918,PAYLOAD,2023-12-27 20:27:07,14.98352313,0.0002612,69.9998,148.6656,262.9932,97.093,0.00012932,1.451e-05,0.0,0 STARLINK-5918,1 55939U 23037AB  23361.85217566  .00001451  00000-0  12932-3 0  9992,2 55939  69.9998 148.6656 0002612 262.9932  97.0930 14.98352313 43726,6950.124,96.106,573.804,570.174,0.0
55939.0,STARLINK-5918,PAYLOAD,2023-12-28 12:28:29,14.98342139,0.0002825,69.9992,146.9807,268.906,91.1775,-6.5082e-05,-8.7e-06,0.0,0 STARLINK-5918,1 55939U 23037AB  23362.51978407 -.00000870  00000-0 -65082-4 0  9995,2 55939  69.9992 146.9807 0002825 268.9060  91.1775 14.98342139 44169,6950.155,96.106,573.984,570.057,0.0
55939.0,STARLINK-5918,PAYLOAD,2023-12-28 14:04:37,14.98340533,0.0002874,69.9994,146.8123,266.4056,93.6774,-7.9853e-05,-1.046e-05,0.0,0 STARLINK-5918,1 55939U 23037AB  23362.58654443 -.00001046  00000-0 -79853-4 0  9990,2 55939  69.9994 146.8123 0002874 266.4056  93.6774 14.98340533 43838,6950.16,96.106,574.023,570.028,0.0
55939.0,STARLINK-5918,PAYLOAD,2023-12-28 18:53:01,14.98338376,0.0003149,69.9995,146.3089,272.4927,87.5871,-9.2605e-05,-1.198e-05,0.0,0 STARLINK-5918,1 55939U 23037AB  23362.78682535 -.00001198  00000-0 -92605-4 0  9993,2 55939  69.9995 146.3089 0003149 272.4927  87.5871 14.98338376 43860,6950.167,96.106,574.221,569.843,0.0
55939.0,STARLINK-5918,PAYLOAD,2023-12-29 14:06:38,14.98338687,0.0003168,69.9994,144.2888,269.4785,90.6011,-0.00014667,-1.843e-05,0.0,0 STARLINK-5918,1 55939U 23037AB  23363.58794139 -.00001843  00000-0 -14667-3 0  9994,2 55939  69.9994 144.2888 0003168 269.4785  90.6011 14.98338687 43981,6950.166,96.106,574.233,569.829,0.0
55939.0,STARLINK-5918,PAYLOAD,2023-12-29 18:55:02,14.98340382,0.0003059,69.9996,143.7841,266.9703,93.1106,-0.00010978,-1.403e-05,0.0,0 STARLINK-5918,1 55939U 23037AB  23363.78821803 -.00001403  00000-0 -10978-3 0  9998,2 55939  69.9996 143.7841 0003059 266.9703  93.1106 14.98340382 44357,6950.161,96.106,574.152,569.9,0.0
